{"type": "FeatureCollection", "features": [ {"type": "Feature", "properties": {"norad_id": 66875, "name": "STARLINK-36053", "group": "last-30-days", "lat": -40.5303529363355, "lon": -35.34015697950085, "alt_km": 346.72037026670114, "timestamp": "2025-12-19T22:41:51.097857+00:00", "meta": {"OBJECT_NAME": "STARLINK-36053", "OBJECT_ID": "2025-281AD", "EPOCH": "2025-12-19T18:00:00.998784", "MEAN_MOTION": 15.75048984, "ECCENTRICITY": 0.0001604, "INCLINATION": 43.0022, "RA_OF_ASC_NODE": 79.2883, "ARG_OF_PERICENTER": 270.3326, "MEAN_ANOMALY": 310.928, "EPHEMERIS_TYPE": 0, "CLASSIFICATION_TYPE": "U", "NORAD_CAT_ID": 66875, "ELEMENT_SET_NO": 999, "REV_AT_EPOCH": 255, "BSTAR": 2.6141e-05, "MEAN_MOTION_DOT": 3.541e-05, "MEAN_MOTION_DDOT": 0}, "tle": {"line1": "1 66875U 25281AD  25353.75001156  .00003541  00000+0  26141-4 0  9993", "line2": "2 66875  43.0022  79.2883 0001604 270.3326 310.9280 15.75048984  2552"}}, "geometry": {"type": "Point", "coordinates": [-35.34015697950085, -40.5303529363355]}}, {"type": "Feature", "properties": {"norad_id": 66876, "name": "STARLINK-35702", "group": "last-30-days", "lat": -39.39085579931573, "lon": -40.10384793477578, "alt_km": 346.8227069498553, "timestamp": "2025-12-19T22:41:51.097869+00:00", "meta": {"OBJECT_NAME": "STARLINK-35702", "OBJECT_ID": "2025-281AE", "EPOCH": "2025-12-19T18:00:00.998784", "MEAN_MOTION": 15.75024925, "ECCENTRICITY": 0.0001757, "INCLINATION": 43.0011, "RA_OF_ASC_NODE": 79.2992, "ARG_OF_PERICENTER": 287.6673, "MEAN_ANOMALY": 289.7744, "EPHEMERIS_TYPE": 0, "CLASSIFICATION_TYPE": "U", "NORAD_CAT_ID": 66876, "ELEMENT_SET_NO": 999, "REV_AT_EPOCH": 255, "BSTAR": 0.00024304, "MEAN_MOTION_DOT": 0.00036997, "MEAN_MOTION_DDOT": 0}, "tle": {"line1": "1 66876U 25281AE  25353.75001156  .00036997  00000+0  24304-3 0  9993", "line2": "2 66876  43.0011  79.2992 0001757 287.6673 289.7744 15.75024925  2554"}}, "geometry": {"type": "Point", "coordinates": [-40.10384793477578, -39.39085579931573]}}, {"type": "Feature", "properties": {"norad_id": 66877, "name": "ZQ-3 R/B", "group": "last-30-days", "lat": -34.191503184170294, "lon": -123.96753437720606, "alt_km": 154.98335721519288, "timestamp": "2025-12-19T22:41:51.097882+00:00", "meta": {"OBJECT_NAME": "ZQ-3 R/B", "OBJECT_ID": "2025-282A", "EPOCH": "2025-12-19T11:53:21.153408", "MEAN_MOTION": 14.73290803, "ECCENTRICITY": 0.0721973, "INCLINATION": 56.9495, "RA_OF_ASC_NODE": 31.5399, "ARG_OF_PERICENTER": 231.7966, "MEAN_ANOMALY": 121.5917, "EPHEMERIS_TYPE": 0, "CLASSIFICATION_TYPE": "U", "NORAD_CAT_ID": 66877, "ELEMENT_SET_NO": 999, "REV_AT_EPOCH": 238, "BSTAR": 0.00017878, "MEAN_MOTION_DOT": 0.009813, "MEAN_MOTION_DDOT": 7.7232e-06}, "tle": {"line1": "1 66877U 25282A   25353.49538372  .00981300  77232-5  17878-3 0  9993", "line2": "2 66877  56.9495  31.5399 0721973 231.7966 121.5917 14.73290803  2383"}}, "geometry": {"type": "Point", "coordinates": [-123.96753437720606, -34.191503184170294]}}, {"type": "Feature", "properties": {"norad_id": 66878, "name": "STARLINK-35866", "group": "last-30-days", "lat": -45.104650104937654, "lon": -11.157934733162906, "alt_km": 348.5076489305611, "timestamp": "2025-12-19T22:41:51.097892+00:00", "meta": {"OBJECT_NAME": "STARLINK-35866", "OBJECT_ID": "2025-283A", "EPOCH": "2025-12-19T18:00:00.998784", "MEAN_MOTION": 15.75935062, "ECCENTRICITY": 7.45e-05, "INCLINATION": 53.1557, "RA_OF_ASC_NODE": 38.6314, "ARG_OF_PERICENTER": 70.6505, "MEAN_ANOMALY": 196.2742, "EPHEMERIS_TYPE": 0, "CLASSIFICATION_TYPE": "U", "NORAD_CAT_ID": 66878, "ELEMENT_SET_NO": 999, "REV_AT_EPOCH": 355, "BSTAR": -0.0093708, "MEAN_MOTION_DOT": -0.01324016, "MEAN_MOTION_DDOT": 0}, "tle": {"line1": "1 66878U 25283A   25353.75001156 -.01324016  00000+0 -93708-2 0  9995", "line2": "2 66878  53.1557  38.6314 0000745  70.6505 196.2742 15.75935062  3554"}}, "geometry": {"type": "Point", "coordinates": [-11.157934733162906, -45.104650104937654]}}, {"type": "Feature", "properties": {"norad_id": 66879, "name": "STARLINK-35749", "group": "last-30-days", "lat": -42.87404118742995, "lon": -6.470616418565987, "alt_km": 349.21550943440525, "timestamp": "2025-12-19T22:41:51.097902+00:00", "meta": {"OBJECT_NAME": "STARLINK-35749", "OBJECT_ID": "2025-283B", "EPOCH": "2025-12-19T18:00:00.998784", "MEAN_MOTION": 15.75725079, "ECCENTRICITY": 0.0001276, "INCLINATION": 53.1561, "RA_OF_ASC_NODE": 38.6226, "ARG_OF_PERICENTER": 76.731, "MEAN_ANOMALY": 194.3907, "EPHEMERIS_TYPE": 0, "CLASSIFICATION_TYPE": "U", "NORAD_CAT_ID": 66879, "ELEMENT_SET_NO": 999, "REV_AT_EPOCH": 355, "BSTAR": -0.0090202, "MEAN_MOTION_DOT": -0.01269123, "MEAN_MOTION_DDOT": 0}, "tle": {"line1": "1 66879U 25283B   25353.75001156 -.01269123  00000+0 -90202-2 0  9999", "line2": "2 66879  53.1561  38.6226 0001276  76.7310 194.3907 15.75725079  3550"}}, "geometry": {"type": "Point", "coordinates": [-6.470616418565987, -42.87404118742995]}}, {"type": "Feature", "properties": {"norad_id": 66880, "name": "STARLINK-35844", "group": "last-30-days", "lat": -44.02096090401866, "lon": -8.786085426044062, "alt_km": 348.78045863578336, "timestamp": "2025-12-19T22:41:51.097912+00:00", "meta": {"OBJECT_NAME": "STARLINK-35844", "OBJECT_ID": "2025-283C", "EPOCH": "2025-12-19T18:00:00.998784", "MEAN_MOTION": 15.75799679, "ECCENTRICITY": 0.0001036, "INCLINATION": 53.1558, "RA_OF_ASC_NODE": 38.6272, "ARG_OF_PERICENTER": 73.7221, "MEAN_ANOMALY": 195.2862, "EPHEMERIS_TYPE": 0, "CLASSIFICATION_TYPE": "U", "NORAD_CAT_ID": 66880, "ELEMENT_SET_NO": 999, "REV_AT_EPOCH": 355, "BSTAR": -0.0081444, "MEAN_MOTION_DOT": -0.0114199, "MEAN_MOTION_DDOT": 0}, "tle": {"line1": "1 66880U 25283C   25353.75001156 -.01141990  00000+0 -81444-2 0  9990", "line2": "2 66880  53.1558  38.6272 0001036  73.7221 195.2862 15.75799679  3558"}}, "geometry": {"type": "Point", "coordinates": [-8.786085426044062, -44.02096090401866]}}, {"type": "Feature", "properties": {"norad_id": 66881, "name": "STARLINK-35860", "group": "last-30-days", "lat": -41.720211457949716, "lon": -4.3112558311452895, "alt_km": 349.4602884148708, "timestamp": "2025-12-19T22:41:51.097924+00:00", "meta": {"OBJECT_NAME": "STARLINK-35860", "OBJECT_ID": "2025-283D", "EPOCH": "2025-12-19T18:00:00.998784", "MEAN_MOTION": 15.75694491, "ECCENTRICITY": 0.0001295, "INCLINATION": 53.156, "RA_OF_ASC_NODE": 38.6181, "ARG_OF_PERICENTER": 99.3845, "MEAN_ANOMALY": 173.7349, "EPHEMERIS_TYPE": 0, "CLASSIFICATION_TYPE": "U", "NORAD_CAT_ID": 66881, "ELEMENT_SET_NO": 999, "REV_AT_EPOCH": 355, "BSTAR": -0.0092257, "MEAN_MOTION_DOT": -0.01293497, "MEAN_MOTION_DDOT": 0}, "tle": {"line1": "1 66881U 25283D   25353.75001156 -.01293497  00000+0 -92257-2 0  9995", "line2": "2 66881  53.1560  38.6181 0001295  99.3845 173.7349 15.75694491  3551"}}, "geometry": {"type": "Point", "coordinates": [-4.3112558311452895, -41.720211457949716]}}, {"type": "Feature", "properties": {"norad_id": 66882, "name": "STARLINK-35912", "group": "last-30-days", "lat": -40.51260937411909, "lon": -2.2035626232903223, "alt_km": 349.33963151298303, "timestamp": "2025-12-19T22:41:51.097934+00:00", "meta": {"OBJECT_NAME": "STARLINK-35912", "OBJECT_ID": "2025-283E", "EPOCH": "2025-12-19T18:00:00.998784", "MEAN_MOTION": 15.75639661, "ECCENTRICITY": 0.0001132, "INCLINATION": 53.1561, "RA_OF_ASC_NODE": 38.6144, "ARG_OF_PERICENTER": 76.932, "MEAN_ANOMALY": 198.236, "EPHEMERIS_TYPE": 0, "CLASSIFICATION_TYPE": "U", "NORAD_CAT_ID": 66882, "ELEMENT_SET_NO": 999, "REV_AT_EPOCH": 355, "BSTAR": -0.0095532, "MEAN_MOTION_DOT": -0.01331547, "MEAN_MOTION_DDOT": 0}, "tle": {"line1": "1 66882U 25283E   25353.75001156 -.01331547  00000+0 -95532-2 0  9994", "line2": "2 66882  53.1561  38.6144 0001132  76.9320 198.2360 15.75639661  3554"}}, "geometry": {"type": "Point", "coordinates": [-2.2035626232903223, -40.51260937411909]}}, {"type": "Feature", "properties": {"norad_id": 66883, "name": "STARLINK-35947", "group": "last-30-days", "lat": -39.236669315366555, "lon": -0.12319816767381632, "alt_km": 349.21624980924753, "timestamp": "2025-12-19T22:41:51.097944+00:00", "meta": {"OBJECT_NAME": "STARLINK-35947", "OBJECT_ID": "2025-283F", "EPOCH": "2025-12-19T18:00:00.998784", "MEAN_MOTION": 15.75721018, "ECCENTRICITY": 9e-05, "INCLINATION": 53.1559, "RA_OF_ASC_NODE": 38.6103, "ARG_OF_PERICENTER": 65.8429, "MEAN_ANOMALY": 211.3626, "EPHEMERIS_TYPE": 0, "CLASSIFICATION_TYPE": "U", "NORAD_CAT_ID": 66883, "ELEMENT_SET_NO": 999, "REV_AT_EPOCH": 360, "BSTAR": -0.011708, "MEAN_MOTION_DOT": -0.01629673, "MEAN_MOTION_DDOT": 0}, "tle": {"line1": "1 66883U 25283F   25353.75001156 -.01629673  00000+0 -11708-1 0  9997", "line2": "2 66883  53.1559  38.6103 0000900  65.8429 211.3626 15.75721018  3602"}}, "geometry": {"type": "Point", "coordinates": [-0.12319816767381632, -39.236669315366555]}}, {"type": "Feature", "properties": {"norad_id": 66884, "name": "STARLINK-36057", "group": "last-30-days", "lat": -36.673711786971595, "lon": 3.6847174999891408, "alt_km": 349.58814041740334, "timestamp": "2025-12-19T22:41:51.097954+00:00", "meta": {"OBJECT_NAME": "STARLINK-36057", "OBJECT_ID": "2025-283G", "EPOCH": "2025-12-19T18:00:00.998784", "MEAN_MOTION": 15.75409169, "ECCENTRICITY": 9.35e-05, "INCLINATION": 53.1564, "RA_OF_ASC_NODE": 38.6009, "ARG_OF_PERICENTER": 54.5089, "MEAN_ANOMALY": 226.8441, "EPHEMERIS_TYPE": 0, "CLASSIFICATION_TYPE": "U", "NORAD_CAT_ID": 66884, "ELEMENT_SET_NO": 999, "REV_AT_EPOCH": 355, "BSTAR": -0.010341, "MEAN_MOTION_DOT": -0.01415813, "MEAN_MOTION_DDOT": 0}, "tle": {"line1": "1 66884U 25283G   25353.75001156 -.01415813  00000+0 -10341-1 0  9999", "line2": "2 66884  53.1564  38.6009 0000935  54.5089 226.8441 15.75409169  3559"}}, "geometry": {"type": "Point", "coordinates": [3.6847174999891408, -36.673711786971595]}}]}